GPS BIIA-10 (PRN 32)    
1 20959U 90103A   16025.19838815  .00000012  00000-0  00000+0 0  9997
2 20959  54.2511 185.2508 0113075  11.3041 348.9051  2.00568730184296
GPS BIIR-2  (PRN 13)    
1 24876U 97035A   16025.01485593  .00000029  00000-0  00000+0 0  9990
2 24876  55.7083 247.1796 0044609 115.1873 245.3460  2.00562416135618
GPS BIIR-3  (PRN 11)    
1 25933U 99055A   16025.60710565 -.00000040  00000-0  00000+0 0  9998
2 25933  51.3041  99.9754 0160037  85.7856 266.3930  2.00565601119440
GPS BIIR-4  (PRN 20)    
1 26360U 00025A   16025.52636160  .00000004  00000-0  00000+0 0  9990
2 26360  53.0719 176.1035 0047372  75.0277 322.6450  2.00561287115132
GPS BIIR-5  (PRN 28)    
1 26407U 00040A   16025.38104947 -.00000087  00000-0  00000+0 0  9998
2 26407  56.6977   4.9731 0202269 266.6750 302.4640  2.00569952113808
GPS BIIR-6  (PRN 14)    
1 26605U 00071A   16025.39711050  .00000026  00000-0  00000+0 0  9994
2 26605  55.2778 245.0880 0085102 248.8969 267.1678  2.00558659111408
GPS BIIR-7  (PRN 18)    
1 26690U 01004A   16025.48874708  .00000006  00000-0  00000+0 0  9993
2 26690  53.0009 179.0840 0167673 250.3966  66.2559  2.00564795109812
GPS BIIR-8  (PRN 16)    
1 27663U 03005A   16025.18731275 -.00000088  00000-0  00000+0 0  9996
2 27663  56.7737   4.6890 0083930  16.7333 177.1691  2.00561620 95169
GPS BIIR-9  (PRN 21)    
1 27704U 03010A   16025.55498841 -.00000028  00000-0  00000+0 0  9992
2 27704  53.6004 119.3584 0232448 254.8792 164.6335  2.00562223 93979
GPS BIIR-10 (PRN 22)    
1 28129U 03058A   16025.13563343  .00000004  00000-0  00000+0 0  9993
2 28129  52.8775 179.1438 0077862 244.5912 114.5560  2.00396494 88676
GPS BIIR-11 (PRN 19)    
1 28190U 04009A   16025.21320919 -.00000044  00000-0  00000+0 0  9992
2 28190  55.7013  66.1200 0111160  37.5998 341.2860  2.00386676 86847
GPS BIIR-12 (PRN 23)    
1 28361U 04023A   16025.46971426  .00000026  00000-0  00000+0 0  9999
2 28361  54.2449 240.7177 0105471 211.1691 250.1131  2.00555817 84937
GPS BIIR-13 (PRN 02)    
1 28474U 04045A   16025.28747586 -.00000030  00000-0  00000+0 0  9992
2 28474  53.9925 118.6323 0155102 235.6748  97.2804  2.00559047 82296
GPS BIIRM-1 (PRN 17)    
1 28874U 05038A   16025.23836661 -.00000045  00000-0  00000+0 0  9993
2 28874  55.8690  63.3083 0111491 248.1107 156.3695  2.00569150 75697
GPS BIIRM-2 (PRN 31)    
1 29486U 06042A   16025.45078164 -.00000052  00000-0  00000+0 0  9997
2 29486  55.7264 302.6054 0084446 332.9511 146.6417  2.00562848 68413
GPS BIIRM-3 (PRN 12)    
1 29601U 06052A   16025.22578626 -.00000088  00000-0  00000+0 0  9999
2 29601  56.7439   3.6130 0056269  34.9604 325.4003  2.00579744 67324
GPS BIIRM-4 (PRN 15)    
1 32260U 07047A   16024.55400968  .00000032  00000-0  00000+0 0  9995
2 32260  53.3749 237.5521 0079224  25.6295 334.8196  2.00549824 60693
GPS BIIRM-5 (PRN 29)    
1 32384U 07062A   16025.48257502 -.00000046  00000-0  00000+0 0  9992
2 32384  55.9222  63.8486 0011544 316.8247 130.4898  2.00569558 59443
GPS BIIRM-6 (PRN 07)    
1 32711U 08012A   16024.96098816 -.00000052  00000-0  00000+0 0  9992
2 32711  55.4491 302.1205 0091351 207.8234 151.7296  2.00563235 57629
GPS BIIRM-8 (PRN 05)    
1 35752U 09043A   16025.45313694  .00000009  00000-0  00000+0 0  9995
2 35752  54.2257 180.1407 0044834  25.3469 359.6037  2.00557837 47216
GPS BIIF-1  (PRN 25)    
1 36585U 10022A   16025.58036381 -.00000090  00000-0  00000+0 0  9999
2 36585  56.0748   0.7659 0048837  37.6137 186.1215  2.00576534 41453
GPS BIIF-2  (PRN 01)    
1 37753U 11036A   16025.60967741 -.00000024  00000-0  00000+0 0  9996
2 37753  55.2117 121.0745 0048854  24.8356 303.7498  2.00565776 33148
GPS BIIF-3  (PRN 24)    
1 38833U 12053A   16025.14353515 -.00000050  00000-0  00000+0 0  9992
2 38833  54.4813 299.5326 0040851  16.7761 343.4057  2.00567729 24217
GPS BIIF-4  (PRN 27)    
1 39166U 13023A   16025.50140158 -.00000049  00000-0  00000+0 0  9995
2 39166  55.5792  60.4793 0030481   7.6607 352.4507  2.00568749 19749
GPS BIIF-5  (PRN 30)    
1 39533U 14008A   16025.00134605 -.00000058  00000-0  00000+0 0  9992
2 39533  54.6347 304.7488 0016550 183.1126 176.9161  2.00566781 14109
GPS BIIF-6  (PRN 06)    
1 39741U 14026A   16025.27777308 -.00000027  00000-0  00000+0 0  9991
2 39741  55.2030 120.6034 0004579 247.6622 112.3043  2.00569264 12383
GPS BIIF-7  (PRN 09)    
1 40105U 14045A   16025.37191456  .00000028  00000-0  00000+0 0  9993
2 40105  54.7626 240.3564 0003994 119.1786 240.9203  2.00566163 10835
GPS BIIF-8  (PRN 03)    
1 40294U 14068A   16025.23795491  .00000009  00000-0  00000+0 0  9990
2 40294  54.9637 180.7367 0003479 209.1074 150.8296  2.00550954  9058
GPS BIIF-9  (PRN 26)    
1 40534U 15013A   16025.37881349 -.00000092  00000-0  00000+0 0  9994
2 40534  55.0449   0.3834 0008291 333.1202  26.8290  2.00560795  6127
GPS BIIF-10  (PRN 08)   
1 40730U 15033A   16025.03967914 -.00000048  00000-0  00000+0 0  9991
2 40730  55.1157  60.3995 0019887 276.3533  83.4850  2.00567893  3870
GPS BIIF-11  (PRN 10)   
1 41019U 15062A   16024.59353314  .00000007  00000-0  00000+0 0  9991
2 41019  54.9782 180.5260 0010620 202.9302 156.9783  2.00561922  1682
